{"type": "FeatureCollection", "features": [ {"type": "Feature", "properties": {"norad_id": 43648, "name": "BEIDOU-3 M15 (C34)", "group": "gnss", "lat": 45.46690548200511, "lon": 79.28852463445453, "alt_km": 21524.03871084959, "timestamp": "2025-12-18T08:58:43.654217+00:00", "meta": {"OBJECT_NAME": "BEIDOU-3 M15 (C34)", "OBJECT_ID": "2018-078B", "EPOCH": "2025-12-17T15:51:04.131072", "MEAN_MOTION": 1.86232271, "ECCENTRICITY": 0.00039327, "INCLINATION": 54.253, "RA_OF_ASC_NODE": 306.3494, "ARG_OF_PERICENTER": 20.2564, "MEAN_ANOMALY": 339.7463, "EPHEMERIS_TYPE": 0, "CLASSIFICATION_TYPE": "U", "NORAD_CAT_ID": 43648, "ELEMENT_SET_NO": 999, "REV_AT_EPOCH": 4879, "BSTAR": 0, "MEAN_MOTION_DOT": -8.8e-07, "MEAN_MOTION_DDOT": 0}, "tle": {"line1": "1 43648U 18078B   25351.66046448 -.00000088  00000+0  00000+0 0  9998", "line2": "2 43648  54.2530 306.3494 0003932  20.2564 339.7463  1.86232271 48796"}}, "geometry": {"type": "Point", "coordinates": [79.28852463445453, 45.46690548200511]}}, {"type": "Feature", "properties": {"norad_id": 43683, "name": "BEIDOU-3 G1 (C59)", "group": "gnss", "lat": -2.569144563739229, "lon": 1.9325913708328017, "alt_km": 35793.04653988987, "timestamp": "2025-12-18T08:58:43.654235+00:00", "meta": {"OBJECT_NAME": "BEIDOU-3 G1 (C59)", "OBJECT_ID": "2018-085A", "EPOCH": "2025-12-17T20:50:22.386624", "MEAN_MOTION": 1.00269423, "ECCENTRICITY": 0.00016353, "INCLINATION": 2.6203, "RA_OF_ASC_NODE": 102.8168, "ARG_OF_PERICENTER": 48.69, "MEAN_ANOMALY": 27.8697, "EPHEMERIS_TYPE": 0, "CLASSIFICATION_TYPE": "U", "NORAD_CAT_ID": 43683, "ELEMENT_SET_NO": 999, "REV_AT_EPOCH": 2624, "BSTAR": 0, "MEAN_MOTION_DOT": -2.54e-06, "MEAN_MOTION_DDOT": 0}, "tle": {"line1": "1 43683U 18085A   25351.86831466 -.00000254  00000+0  00000+0 0  9994", "line2": "2 43683   2.6203 102.8168 0001635  48.6900  27.8697  1.00269423 26247"}}, "geometry": {"type": "Point", "coordinates": [1.9325913708328017, -2.569144563739229]}}, {"type": "Feature", "properties": {"norad_id": 43687, "name": "COSMOS 2529 (757)", "group": "gnss", "lat": -58.24571922103364, "lon": 69.83541940056828, "alt_km": 19118.105926201213, "timestamp": "2025-12-18T08:58:43.654253+00:00", "meta": {"OBJECT_NAME": "COSMOS 2529 (757)", "OBJECT_ID": "2018-086A", "EPOCH": "2025-12-17T02:36:34.858656", "MEAN_MOTION": 2.13102066, "ECCENTRICITY": 0.00070854, "INCLINATION": 64.292, "RA_OF_ASC_NODE": 198.7408, "ARG_OF_PERICENTER": 253.7168, "MEAN_ANOMALY": 106.2877, "EPHEMERIS_TYPE": 0, "CLASSIFICATION_TYPE": "U", "NORAD_CAT_ID": 43687, "ELEMENT_SET_NO": 999, "REV_AT_EPOCH": 5540, "BSTAR": 0, "MEAN_MOTION_DOT": 1.11e-06, "MEAN_MOTION_DDOT": 0}, "tle": {"line1": "1 43687U 18086A   25351.10873679  .00000111  00000+0  00000+0 0  9999", "line2": "2 43687  64.2920 198.7408 0007085 253.7168 106.2877  2.13102066 55408"}}, "geometry": {"type": "Point", "coordinates": [69.83541940056828, -58.24571922103364]}}, {"type": "Feature", "properties": {"norad_id": 43706, "name": "BEIDOU-3 M17 (C36)", "group": "gnss", "lat": 9.797462180296396, "lon": -164.3930825489587, "alt_km": 21519.864265143053, "timestamp": "2025-12-18T08:58:43.654271+00:00", "meta": {"OBJECT_NAME": "BEIDOU-3 M17 (C36)", "OBJECT_ID": "2018-093A", "EPOCH": "2025-12-15T07:56:44.520576", "MEAN_MOTION": 1.86228523, "ECCENTRICITY": 0.00061371, "INCLINATION": 54.1729, "RA_OF_ASC_NODE": 188.5337, "ARG_OF_PERICENTER": 307.6759, "MEAN_ANOMALY": 184.25, "EPHEMERIS_TYPE": 0, "CLASSIFICATION_TYPE": "U", "NORAD_CAT_ID": 43706, "ELEMENT_SET_NO": 999, "REV_AT_EPOCH": 4811, "BSTAR": 0, "MEAN_MOTION_DOT": 1.13e-06, "MEAN_MOTION_DDOT": 0}, "tle": {"line1": "1 43706U 18093A   25349.33107084  .00000113  00000+0  00000+0 0  9993", "line2": "2 43706  54.1729 188.5337 0006137 307.6759 184.2500  1.86228523 48110"}}, "geometry": {"type": "Point", "coordinates": [-164.3930825489587, 9.797462180296396]}}, {"type": "Feature", "properties": {"norad_id": 43707, "name": "BEIDOU-3 M18 (C37)", "group": "gnss", "lat": 51.51999870746622, "lon": -56.97840932358687, "alt_km": 21528.88503633688, "timestamp": "2025-12-18T08:58:43.654288+00:00", "meta": {"OBJECT_NAME": "BEIDOU-3 M18 (C37)", "OBJECT_ID": "2018-093B", "EPOCH": "2025-12-16T14:33:42.784416", "MEAN_MOTION": 1.8622677, "ECCENTRICITY": 0.00063186, "INCLINATION": 54.1735, "RA_OF_ASC_NODE": 188.4822, "ARG_OF_PERICENTER": 353.2257, "MEAN_ANOMALY": 6.8349, "EPHEMERIS_TYPE": 0, "CLASSIFICATION_TYPE": "U", "NORAD_CAT_ID": 43707, "ELEMENT_SET_NO": 999, "REV_AT_EPOCH": 4813, "BSTAR": 0, "MEAN_MOTION_DOT": 1.15e-06, "MEAN_MOTION_DDOT": 0}, "tle": {"line1": "1 43707U 18093B   25350.60674519  .00000115  00000+0  00000+0 0  9990", "line2": "2 43707  54.1735 188.4822 0006318 353.2257   6.8349  1.86226770 48131"}}, "geometry": {"type": "Point", "coordinates": [-56.97840932358687, 51.51999870746622]}}, {"type": "Feature", "properties": {"norad_id": 43873, "name": "GPS BIII-1  (PRN 04)", "group": "gnss", "lat": -51.657395846489266, "lon": -20.671996592518425, "alt_km": 20133.99271126372, "timestamp": "2025-12-18T08:58:43.654311+00:00", "meta": {"OBJECT_NAME": "GPS BIII-1  (PRN 04)", "OBJECT_ID": "2018-109A", "EPOCH": "2025-12-15T18:29:34.483200", "MEAN_MOTION": 2.00553802, "ECCENTRICITY": 0.00374359, "INCLINATION": 55.5688, "RA_OF_ASC_NODE": 99.4273, "ARG_OF_PERICENTER": 195.145, "MEAN_ANOMALY": 336.5518, "EPHEMERIS_TYPE": 0, "CLASSIFICATION_TYPE": "U", "NORAD_CAT_ID": 43873, "ELEMENT_SET_NO": 999, "REV_AT_EPOCH": 5139, "BSTAR": 0, "MEAN_MOTION_DOT": -3.2e-07, "MEAN_MOTION_DDOT": 0}, "tle": {"line1": "1 43873U 18109A   25349.77053800 -.00000032  00000+0  00000+0 0  9991", "line2": "2 43873  55.5688  99.4273 0037435 195.1450 336.5518  2.00553802 51399"}}, "geometry": {"type": "Point", "coordinates": [-20.671996592518425, -51.657395846489266]}}, {"type": "Feature", "properties": {"norad_id": 44204, "name": "BEIDOU-3 IGSO-1 (C38)", "group": "gnss", "lat": -50.52902022635181, "lon": -8.639517040256997, "alt_km": 35767.13073594101, "timestamp": "2025-12-18T08:58:43.654331+00:00", "meta": {"OBJECT_NAME": "BEIDOU-3 IGSO-1 (C38)", "OBJECT_ID": "2019-023A", "EPOCH": "2025-11-19T14:15:02.708640", "MEAN_MOTION": 1.00252177, "ECCENTRICITY": 0.0026966, "INCLINATION": 58.4003, "RA_OF_ASC_NODE": 39.8168, "ARG_OF_PERICENTER": 221.2202, "MEAN_ANOMALY": 126.9723, "EPHEMERIS_TYPE": 0, "CLASSIFICATION_TYPE": "U", "NORAD_CAT_ID": 44204, "ELEMENT_SET_NO": 999, "REV_AT_EPOCH": 510, "BSTAR": 0, "MEAN_MOTION_DOT": -2.26e-06, "MEAN_MOTION_DDOT": 0}, "tle": {"line1": "1 44204U 19023A   25323.59378135 -.00000226  00000+0  00000+0 0  9994", "line2": "2 44204  58.4003  39.8168 0026966 221.2202 126.9723  1.00252177  5102"}}, "geometry": {"type": "Point", "coordinates": [-8.639517040256997, -50.52902022635181]}}, {"type": "Feature", "properties": {"norad_id": 44231, "name": "BEIDOU-2 G8 (C01)", "group": "gnss", "lat": -1.549402418778305, "lon": 6.384297765338816, "alt_km": 35756.8137157167, "timestamp": "2025-12-18T08:58:43.654355+00:00", "meta": {"OBJECT_NAME": "BEIDOU-2 G8 (C01)", "OBJECT_ID": "2019-027A", "EPOCH": "2025-12-17T20:51:37.267776", "MEAN_MOTION": 1.00266922, "ECCENTRICITY": 0.00087563, "INCLINATION": 1.6746, "RA_OF_ASC_NODE": 74.7233, "ARG_OF_PERICENTER": 258.9366, "MEAN_ANOMALY": 210.4054, "EPHEMERIS_TYPE": 0, "CLASSIFICATION_TYPE": "U", "NORAD_CAT_ID": 44231, "ELEMENT_SET_NO": 999, "REV_AT_EPOCH": 2426, "BSTAR": 0, "MEAN_MOTION_DOT": -2.25e-06, "MEAN_MOTION_DDOT": 0}, "tle": {"line1": "1 44231U 19027A   25351.86918134 -.00000225  00000+0  00000+0 0  9997", "line2": "2 44231   1.6746  74.7233 0008756 258.9366 210.4054  1.00266922 24269"}}, "geometry": {"type": "Point", "coordinates": [6.384297765338816, -1.549402418778305]}}, {"type": "Feature", "properties": {"norad_id": 44299, "name": "COSMOS 2534 (758)", "group": "gnss", "lat": 22.574543284583324, "lon": -149.77425961883782, "alt_km": 19131.669484858307, "timestamp": "2025-12-18T08:58:43.654373+00:00", "meta": {"OBJECT_NAME": "COSMOS 2534 (758)", "OBJECT_ID": "2019-030A", "EPOCH": "2025-12-17T20:57:14.230368", "MEAN_MOTION": 2.13102433, "ECCENTRICITY": 0.00087784, "INCLINATION": 64.3657, "RA_OF_ASC_NODE": 198.72, "ARG_OF_PERICENTER": 284.1982, "MEAN_ANOMALY": 76.6096, "EPHEMERIS_TYPE": 0, "CLASSIFICATION_TYPE": "U", "NORAD_CAT_ID": 44299, "ELEMENT_SET_NO": 999, "REV_AT_EPOCH": 5106, "BSTAR": 0, "MEAN_MOTION_DOT": 1.11e-06, "MEAN_MOTION_DDOT": 0}, "tle": {"line1": "1 44299U 19030A   25351.87308137  .00000111  00000+0  00000+0 0  9995", "line2": "2 44299  64.3657 198.7200 0008778 284.1982  76.6096  2.13102433 51067"}}, "geometry": {"type": "Point", "coordinates": [-149.77425961883782, 22.574543284583324]}}, {"type": "Feature", "properties": {"norad_id": 44337, "name": "BEIDOU-3 IGSO-2 (C39)", "group": "gnss", "lat": -0.6641655602661715, "lon": -19.101518344418036, "alt_km": 35640.62882474535, "timestamp": "2025-12-18T08:58:43.654392+00:00", "meta": {"OBJECT_NAME": "BEIDOU-3 IGSO-2 (C39)", "OBJECT_ID": "2019-035A", "EPOCH": "2025-12-17T20:45:00.400608", "MEAN_MOTION": 1.00269779, "ECCENTRICITY": 0.00374701, "INCLINATION": 55.227, "RA_OF_ASC_NODE": 160.4563, "ARG_OF_PERICENTER": 202.3425, "MEAN_ANOMALY": 154.6367, "EPHEMERIS_TYPE": 0, "CLASSIFICATION_TYPE": "U", "NORAD_CAT_ID": 44337, "ELEMENT_SET_NO": 999, "REV_AT_EPOCH": 2384, "BSTAR": 0, "MEAN_MOTION_DOT": -4.5e-07, "MEAN_MOTION_DDOT": 0}, "tle": {"line1": "1 44337U 19035A   25351.86458797 -.00000045  00000+0  00000+0 0  9997", "line2": "2 44337  55.2270 160.4563 0037470 202.3425 154.6367  1.00269779 23848"}}, "geometry": {"type": "Point", "coordinates": [-19.101518344418036, -0.6641655602661715]}}]}